[
    {
        "Altitude(m)": 556367.4378764227,
        "Argument of Periapsis(deg)": 0.0,
        "Eccentricity": 0.0,
        "Inclination(deg)": 53.0,
        "Latitude(deg)": 37.24582592978354,
        "Longitude(deg)": 169.76652539214237,
        "Mean Anomaly(deg)": 49.09089999999999,
        "RAAN(deg)": 235.0,
        "Satellite Name": "Starlink Shell 1 1037",
        "Satellite Number": 1037,
        "Semi-Major Axis(m)": 6931778.249405717,
        "Time(s)": 0
    },
    {
        "Altitude(m)": 556450.8231976804,
        "Argument of Periapsis(deg)": 0.00034857847951123687,
        "Eccentricity": 0.0,
        "Inclination(deg)": 53.0,
        "Latitude(deg)": 37.65704965599162,
        "Longitude(deg)": 170.32145270698194,
        "Mean Anomaly(deg)": 49.71773120355674,
        "RAAN(deg)": 234.9994812299225,
        "Satellite Name": "Starlink Shell 1 1037",
        "Satellite Number": 1037,
        "Semi-Major Axis(m)": 6931778.249405717,
        "Time(s)": 10
    },
    {
        "Altitude(m)": 556534.2949443003,
        "Argument of Periapsis(deg)": 0.0006971569590224737,
        "Eccentricity": 0.0,
        "Inclination(deg)": 53.0,
        "Latitude(deg)": 38.06519797274381,
        "Longitude(deg)": 170.88296139917855,
        "Mean Anomaly(deg)": 50.344562407113386,
        "RAAN(deg)": 234.99896245984505,
        "Satellite Name": "Starlink Shell 1 1037",
        "Satellite Number": 1037,
        "Semi-Major Axis(m)": 6931778.249405717,
        "Time(s)": 20
    },
    {
        "Altitude(m)": 556617.7979572648,
        "Argument of Periapsis(deg)": 0.0010457354385337105,
        "Eccentricity": 0.0,
        "Inclination(deg)": 53.0,
        "Latitude(deg)": 38.47019218467841,
        "Longitude(deg)": 171.4511717359351,
        "Mean Anomaly(deg)": 50.971393610670134,
        "RAAN(deg)": 234.99844368976756,
        "Satellite Name": "Starlink Shell 1 1037",
        "Satellite Number": 1037,
        "Semi-Major Axis(m)": 6931778.249405717,
        "Time(s)": 30
    },
    {
        "Altitude(m)": 556701.277271917,
        "Argument of Periapsis(deg)": 0.0013943139180449475,
        "Eccentricity": 0.0,
        "Inclination(deg)": 53.0,
        "Latitude(deg)": 38.87195184907048,
        "Longitude(deg)": 172.02620434560282,
        "Mean Anomaly(deg)": 51.59822481422683,
        "RAAN(deg)": 234.99792491969006,
        "Satellite Name": "Starlink Shell 1 1037",
        "Satellite Number": 1037,
        "Semi-Major Axis(m)": 6931778.249405717,
        "Time(s)": 40
    },
    {
        "Altitude(m)": 556784.6781460297,
        "Argument of Periapsis(deg)": 0.0017428923975561844,
        "Eccentricity": 0.0,
        "Inclination(deg)": 53.0,
        "Latitude(deg)": 39.27039475280716,
        "Longitude(deg)": 172.6081790343518,
        "Mean Anomaly(deg)": 52.22505601778357,
        "RAAN(deg)": 234.99740614961266,
        "Satellite Name": "Starlink Shell 1 1037",
        "Satellite Number": 1037,
        "Semi-Major Axis(m)": 6931778.249405717,
        "Time(s)": 50
    },
    {
        "Altitude(m)": 556867.946087685,
        "Argument of Periapsis(deg)": 0.002091470877067421,
        "Eccentricity": 0.0,
        "Inclination(deg)": 53.0,
        "Latitude(deg)": 39.66543689133839,
        "Longitude(deg)": 173.1972151017905,
        "Mean Anomaly(deg)": 52.85188722134032,
        "RAAN(deg)": 234.99688737953514,
        "Satellite Name": "Starlink Shell 1 1037",
        "Satellite Number": 1037,
        "Semi-Major Axis(m)": 6931778.249405717,
        "Time(s)": 60
    },
    {
        "Altitude(m)": 556951.0268830485,
        "Argument of Periapsis(deg)": 0.0024400493565786582,
        "Eccentricity": 0.0,
        "Inclination(deg)": 53.0,
        "Latitude(deg)": 40.05699244984874,
        "Longitude(deg)": 173.7934316420541,
        "Mean Anomaly(deg)": 53.47871842489702,
        "RAAN(deg)": 234.99636860945765,
        "Satellite Name": "Starlink Shell 1 1037",
        "Satellite Number": 1037,
        "Semi-Major Axis(m)": 6931778.249405717,
        "Time(s)": 70
    },
    {
        "Altitude(m)": 557033.8666239218,
        "Argument of Periapsis(deg)": 0.002788627836089895,
        "Eccentricity": 0.0,
        "Inclination(deg)": 53.0,
        "Latitude(deg)": 40.44497378691064,
        "Longitude(deg)": 174.39694631688863,
        "Mean Anomaly(deg)": 54.105549628453716,
        "RAAN(deg)": 234.99584983938024,
        "Satellite Name": "Starlink Shell 1 1037",
        "Satellite Number": 1037,
        "Semi-Major Axis(m)": 6931778.249405717,
        "Time(s)": 80
    },
    {
        "Altitude(m)": 557116.4117351018,
        "Argument of Periapsis(deg)": 0.0031372063156011316,
        "Eccentricity": 0.0,
        "Inclination(deg)": 53.0,
        "Latitude(deg)": 40.82929142088882,
        "Longitude(deg)": 175.0078756259019,
        "Mean Anomaly(deg)": 54.73238083201041,
        "RAAN(deg)": 234.99533106930275,
        "Satellite Name": "Starlink Shell 1 1037",
        "Satellite Number": 1037,
        "Semi-Major Axis(m)": 6931778.249405717,
        "Time(s)": 90
    },
    {
        "Altitude(m)": 557198.6090015527,
        "Argument of Periapsis(deg)": 0.0034857847951123688,
        "Eccentricity": 0.0,
        "Inclination(deg)": 53.0,
        "Latitude(deg)": 41.20985401938745,
        "Longitude(deg)": 175.62633516055323,
        "Mean Anomaly(deg)": 55.359212035567154,
        "RAAN(deg)": 234.99481229922526,
        "Satellite Name": "Starlink Shell 1 1037",
        "Satellite Number": 1037,
        "Semi-Major Axis(m)": 6931778.249405717,
        "Time(s)": 100
    },
    {
        "Altitude(m)": 557280.405595349,
        "Argument of Periapsis(deg)": 0.003834363274623606,
        "Eccentricity": 0.0,
        "Inclination(deg)": 53.0,
        "Latitude(deg)": 41.58656839205043,
        "Longitude(deg)": 176.25243832848577,
        "Mean Anomaly(deg)": 55.9860432391239,
        "RAAN(deg)": 234.9942935291478,
        "Satellite Name": "Starlink Shell 1 1037",
        "Satellite Number": 1037,
        "Semi-Major Axis(m)": 6931778.249405717,
        "Time(s)": 110
    },
    {
        "Altitude(m)": 557361.7491023936,
        "Argument of Periapsis(deg)": 0.004182941754134842,
        "Eccentricity": 0.0,
        "Inclination(deg)": 53.0,
        "Latitude(deg)": 41.95933948703081,
        "Longitude(deg)": 176.8862965734705,
        "Mean Anomaly(deg)": 56.61287444268055,
        "RAAN(deg)": 234.9937747590703,
        "Satellite Name": "Starlink Shell 1 1037",
        "Satellite Number": 1037,
        "Semi-Major Axis(m)": 6931778.249405717,
        "Time(s)": 120
    },
    {
        "Altitude(m)": 557442.5875488853,
        "Argument of Periapsis(deg)": 0.004531520233646079,
        "Eccentricity": 0.0,
        "Inclination(deg)": 53.0,
        "Latitude(deg)": 42.32807039147052,
        "Longitude(deg)": 177.52801957765828,
        "Mean Anomaly(deg)": 57.2397056462373,
        "RAAN(deg)": 234.99325598899284,
        "Satellite Name": "Starlink Shell 1 1037",
        "Satellite Number": 1037,
        "Semi-Major Axis(m)": 6931778.249405717,
        "Time(s)": 130
    },
    {
        "Altitude(m)": 557522.86942752,
        "Argument of Periapsis(deg)": 0.0048800987131573164,
        "Eccentricity": 0.0,
        "Inclination(deg)": 53.0,
        "Latitude(deg)": 42.692662336346295,
        "Longitude(deg)": 178.1777139328968,
        "Mean Anomaly(deg)": 57.866536849793995,
        "RAAN(deg)": 234.99273721891538,
        "Satellite Name": "Starlink Shell 1 1037",
        "Satellite Number": 1037,
        "Semi-Major Axis(m)": 6931778.249405717,
        "Time(s)": 140
    },
    {
        "Altitude(m)": 557602.5437234681,
        "Argument of Periapsis(deg)": 0.005228677192668553,
        "Eccentricity": 0.0,
        "Inclination(deg)": 53.0,
        "Latitude(deg)": 43.05301470604414,
        "Longitude(deg)": 178.83548330656419,
        "Mean Anomaly(deg)": 58.493368053350736,
        "RAAN(deg)": 234.9922184488379,
        "Satellite Name": "Starlink Shell 1 1037",
        "Satellite Number": 1037,
        "Semi-Major Axis(m)": 6931778.249405717,
        "Time(s)": 150
    },
    {
        "Altitude(m)": 557681.5599400054,
        "Argument of Periapsis(deg)": 0.00557725567217979,
        "Eccentricity": 0.0,
        "Inclination(deg)": 53.0,
        "Latitude(deg)": 43.40902505304681,
        "Longitude(deg)": 179.5014285888345,
        "Mean Anomaly(deg)": 59.12019925690743,
        "RAAN(deg)": 234.9916996787604,
        "Satellite Name": "Starlink Shell 1 1037",
        "Satellite Number": 1037,
        "Semi-Major Axis(m)": 6931778.249405717,
        "Time(s)": 160
    },
    {
        "Altitude(m)": 557759.8681239234,
        "Argument of Periapsis(deg)": 0.0059258341516910265,
        "Eccentricity": 0.0,
        "Inclination(deg)": 53.0,
        "Latitude(deg)": 43.76058911813111,
        "Longitude(deg)": -179.82435349161543,
        "Mean Anomaly(deg)": 59.74703046046413,
        "RAAN(deg)": 234.991180908683,
        "Satellite Name": "Starlink Shell 1 1037",
        "Satellite Number": 1037,
        "Semi-Major Axis(m)": 6931778.249405717,
        "Time(s)": 170
    },
    {
        "Altitude(m)": 557837.4188905768,
        "Argument of Periapsis(deg)": 0.006274412631202263,
        "Eccentricity": 0.0,
        "Inclination(deg)": 53.0,
        "Latitude(deg)": 44.1076008564742,
        "Longitude(deg)": -179.14177025771366,
        "Mean Anomaly(deg)": 60.37386166402088,
        "RAAN(deg)": 234.99066213860547,
        "Satellite Name": "Starlink Shell 1 1037",
        "Satellite Number": 1037,
        "Semi-Major Axis(m)": 6931778.249405717,
        "Time(s)": 180
    }
]